CSS (TIANHE)            
1 48274U 21035A   24250.50223210  .00072542  00000+0  76389-3 0  9999
2 48274  41.4694 307.4965 0001575  25.9430 334.1489 15.63305428191819
